[
    {
        "Altitude(m)": 604983.0528527723,
        "Argument of Periapsis(deg)": 0.0,
        "Eccentricity": 0.0,
        "Inclination(deg)": 60.0,
        "Latitude(deg)": -0.09255066066604291,
        "Longitude(deg)": 130.08391628780063,
        "Mean Anomaly(deg)": 180.0,
        "RAAN(deg)": 50.0,
        "Satellite Name": "Test1 231",
        "Satellite Number": 231,
        "Semi-Major Axis(m)": 6980739.136638005,
        "Time(s)": 0
    },
    {
        "Altitude(m)": 605055.3316362641,
        "Argument of Periapsis(deg)": 0.00010418945913296404,
        "Eccentricity": 0.0,
        "Inclination(deg)": 60.0,
        "Latitude(deg)": -0.6329608677145915,
        "Longitude(deg)": 130.35204053379002,
        "Mean Anomaly(deg)": 180.62010614546185,
        "RAAN(deg)": 49.99957995086026,
        "Satellite Name": "Test1 231",
        "Satellite Number": 231,
        "Semi-Major Axis(m)": 6980739.136638005,
        "Time(s)": 10
    }
]